IRIDIUM 7 [-]           
1 24793U 97020B   24054.95354369  .00000609  00000+0  20660-3 0  9993
2 24793  86.3991  17.6409 0001929  87.0884 273.0533 14.35090831403369
IRIDIUM 4 [-]           
1 24796U 97020E   24054.89426347  .00000691  00000+0  23125-3 0  9995
2 24796  86.3991  14.8637 0002143  82.8399 277.3041 14.36003974403664
IRIDIUM 914 [-]         
1 24836U 97030A   24054.95217155  .00000773  00000+0  24011-3 0  9999
2 24836  86.3952  24.8415 0002982  48.6140 311.5315 14.39841093538148
IRIDIUM 16 [-]          
1 24841U 97030F   24054.89969547  .00000706  00000+0  22848-3 0  9999
2 24841  86.4009  46.5473 0002442 141.6616 218.4756 14.37726021398112
IRIDIUM 911 [-]         
1 24842U 97030G   24054.95342460  .00000931  00000+0  25405-3 0  9998
2 24842  86.4436  45.7475 0012119 252.4554 107.5324 14.46313836405781
IRIDIUM 920 [-]         
1 24871U 97034C   24054.96159175  .00000659  00000+0  20066-3 0  9999
2 24871  86.3932  56.5000 0010167 213.4863 146.5694 14.40542386397565
